NORAD_CAT_ID,OBJECT_NAME,OBJECT_TYPE,EPOCH,MEAN_MOTION,ECCENTRICITY,INCLINATION,RA_OF_ASC_NODE,ARG_OF_PERICENTER,MEAN_ANOMALY,BSTAR,MEAN_MOTION_DOT,MEAN_MOTION_DDOT,TLE_LINE0,TLE_LINE1,TLE_LINE2,SEMIMAJOR_AXIS,PERIOD,APOGEE,PERIGEE,DECAYED
53895.0,STARLINK-5032,PAYLOAD,2023-08-01 11:14:07,15.08836298,0.0001113,53.2163,274.2381,89.873,270.239,1.2546e-05,-8.8e-07,0.0,0 STARLINK-5032,1 53895U 22119K   23213.46814596 -.00000088  00000-0  12546-4 0  9998,2 53895  53.2163 274.2381 0001113  89.8730 270.2390 15.08836298 47666,6917.892,95.438,540.527,538.987,0.0
53895.0,STARLINK-5032,PAYLOAD,2023-08-02 14:15:41,15.08840261,0.0001191,53.2164,269.1836,86.9323,273.1805,-4.2548e-06,-3.56e-06,0.0,0 STARLINK-5032,1 53895U 22119K   23214.59422729 -.00000356  00000-0 -42548-5 0  9991,2 53895  53.2164 269.1836 0001191  86.9323 273.1805 15.08840261 47834,6917.88,95.438,540.569,538.921,0.0
53895.0,STARLINK-5032,PAYLOAD,2023-08-03 15:41:51,15.08843527,0.0001172,53.216,264.4246,83.0855,277.027,7.7092e-05,9.39e-06,0.0,0 STARLINK-5032,1 53895U 22119K   23215.65406264  .00000939  00000-0  77092-4 0  9991,2 53895  53.2160 264.4246 0001172  83.0855 277.0270 15.08843527 47994,6917.87,95.437,540.545,538.924,0.0
53895.0,STARLINK-5032,PAYLOAD,2023-08-04 10:46:30,15.08829918,0.0001307,53.2161,260.8566,71.6215,288.492,-5.6309e-05,-1.184e-05,0.0,0 STARLINK-5032,1 53895U 22119K   23216.44896063 -.00001184  00000-0 -56309-4 0  9992,2 53895  53.2161 260.8566 0001307  71.6215 288.4920 15.08829918 48114,6917.911,95.438,540.68,538.872,0.0
53895.0,STARLINK-5032,PAYLOAD,2023-08-05 09:01:52,15.0884752,0.000126,53.2159,256.6926,73.7775,286.3356,1.298e-05,-8.1e-07,0.0,0 STARLINK-5032,1 53895U 22119K   23217.37630786 -.00000081  00000-0  12980-4 0  9994,2 53895  53.2159 256.6926 0001260  73.7775 286.3356 15.08847520 48250,6917.857,95.437,540.594,538.851,0.0
53895.0,STARLINK-5032,PAYLOAD,2023-08-06 02:31:07,15.08836507,0.0001327,53.2159,253.4212,71.2632,288.8504,0.00011003,1.463e-05,0.0,0 STARLINK-5032,1 53895U 22119K   23218.10494930  .00001463  00000-0  11003-3 0  9993,2 53895  53.2159 253.4212 0001327  71.2632 288.8504 15.08836507 48369,6917.891,95.438,540.674,538.838,0.0
53895.0,STARLINK-5032,PAYLOAD,2023-08-07 02:21:55,15.08835657,0.0001285,53.2152,248.961,85.0368,275.0771,-6.0215e-05,-1.246e-05,0.0,0 STARLINK-5032,1 53895U 22119K   23219.09855555 -.00001246  00000-0 -60215-4 0  9997,2 53895  53.2152 248.9610 0001285  85.0368 275.0771 15.08835657 48511,6917.894,95.438,540.648,538.87,0.0
53895.0,STARLINK-5032,PAYLOAD,2023-08-08 08:34:14,15.08840749,0.0001261,53.2154,243.3118,82.1666,277.947,-3.4463e-06,-3.43e-06,0.0,0 STARLINK-5032,1 53895U 22119K   23220.35711042 -.00000343  00000-0 -34463-5 0  9994,2 53895  53.2154 243.3118 0001261  82.1666 277.9470 15.08840749 48704,6917.878,95.438,540.615,538.871,0.0
53895.0,STARLINK-5032,PAYLOAD,2023-08-09 02:03:29,15.08831051,0.0001164,53.2157,240.0415,84.4286,275.6839,3.5353e-06,-2.32e-06,0.0,0 STARLINK-5032,1 53895U 22119K   23221.08575748 -.00000232  00000-0  35353-5 0  9991,2 53895  53.2157 240.0415 0001164  84.4286 275.6839 15.08831051 48818,6917.908,95.438,540.578,538.967,0.0
53895.0,STARLINK-5032,PAYLOAD,2023-08-10 09:51:12,15.08838379,0.0001234,53.2161,234.094,85.0762,275.0371,8.6174e-07,-2.74e-06,0.0,0 STARLINK-5032,1 53895U 22119K   23222.41055719 -.00000274  00000-0  86174-6 0  9994,2 53895  53.2161 234.0940 0001234  85.0762 275.0371 15.08838379 49011,6917.885,95.438,540.604,538.897,0.0
53895.0,STARLINK-5032,PAYLOAD,2023-08-11 17:38:55,15.08836809,0.000121,53.2159,228.1458,86.18,273.9331,2.0243e-05,3.4e-07,0.0,0 STARLINK-5032,1 53895U 22119K   23223.73535906  .00000034  00000-0  20243-4 0  9997,2 53895  53.2159 228.1458 0001210  86.1800 273.9331 15.08836809 49216,6917.89,95.438,540.592,538.918,0.0
53895.0,STARLINK-5032,PAYLOAD,2023-08-12 23:51:14,15.08838566,0.0001248,53.2151,222.4957,85.5506,274.5628,-8.4165e-07,-3.01e-06,0.0,0 STARLINK-5032,1 53895U 22119K   23224.99391865 -.00000301  00000-0 -84165-6 0  9994,2 53895  53.2151 222.4957 0001248  85.5506 274.5628 15.08838566 49405,6917.885,95.438,540.613,538.886,0.0
53895.0,STARLINK-5032,PAYLOAD,2023-08-14 09:14:20,15.08838367,0.0001355,53.2157,216.2502,94.4152,265.6995,-2.3831e-05,-6.67e-06,0.0,0 STARLINK-5032,1 53895U 22119K   23226.38495948 -.00000667  00000-0 -23831-4 0  9992,2 53895  53.2157 216.2502 0001355  94.4152 265.6995 15.08838367 49613,6917.885,95.438,540.688,538.813,0.0
53895.0,STARLINK-5032,PAYLOAD,2023-08-16 02:34:22,15.08832656,0.0001335,53.2162,208.5184,94.0183,266.0962,-8.4725e-06,-4.23e-06,0.0,0 STARLINK-5032,1 53895U 22119K   23228.10720447 -.00000423  00000-0 -84725-5 0  9999,2 53895  53.2162 208.5184 0001335  94.0183 266.0962 15.08832656 49879,6917.903,95.438,540.691,538.844,0.0
53895.0,STARLINK-5032,PAYLOAD,2023-08-17 02:25:09,15.08839619,0.0001286,53.2161,204.0587,91.9651,268.1489,1.471e-05,-5.4e-07,0.0,0 STARLINK-5032,1 53895U 22119K   23229.10080130 -.00000054  00000-0  14710-4 0  9993,2 53895  53.2161 204.0587 0001286  91.9651 268.1489 15.08839619 50029,6917.882,95.438,540.636,538.857,0.0
53895.0,STARLINK-5032,PAYLOAD,2023-08-17 08:46:41,15.08845469,0.0001339,53.2165,202.8695,92.2157,267.8989,6.3567e-05,7.24e-06,0.0,0 STARLINK-5032,1 53895U 22119K   23229.36575562  .00000724  00000-0  63567-4 0  9996,2 53895  53.2165 202.8695 0001339  92.2157 267.8989 15.08845469 50068,6917.864,95.437,540.655,538.802,0.0
53895.0,STARLINK-5032,PAYLOAD,2023-08-18 02:15:57,15.08828133,0.000136,53.2172,199.5983,88.6235,271.4913,-4.6281e-05,-1.024e-05,0.0,0 STARLINK-5032,1 53895U 22119K   23230.09441228 -.00001024  00000-0 -46281-4 0  9999,2 53895  53.2172 199.5983 0001360  88.6235 271.4913 15.08828133 50177,6917.917,95.438,540.722,538.841,0.0
53895.0,STARLINK-5032,PAYLOAD,2023-08-18 14:59:02,15.0883409,0.0001496,53.2173,197.2184,83.7684,276.3478,-1.0116e-05,-4.49e-06,0.0,0 STARLINK-5032,1 53895U 22119K   23230.62432958 -.00000449  00000-0 -10116-4 0  9996,2 53895  53.2173 197.2184 0001496  83.7684 276.3478 15.08834090 50258,6917.898,95.438,540.798,538.729,0.0
53895.0,STARLINK-5032,PAYLOAD,2023-08-19 02:06:43,15.08840773,0.0001399,53.2168,195.1357,88.2712,271.8441,1.7878e-05,-3e-08,0.0,0 STARLINK-5032,1 53895U 22119K   23231.08800409 -.00000003  00000-0  17878-4 0  9994,2 53895  53.2168 195.1357 0001399  88.2712 271.8441 15.08840773 50328,6917.878,95.438,540.711,538.775,0.0
53895.0,STARLINK-5032,PAYLOAD,2023-08-19 06:52:52,15.08848685,0.0001295,53.2161,194.2449,86.8415,273.2726,2.3283e-05,8.3e-07,0.0,0 STARLINK-5032,1 53895U 22119K   23231.28671866  .00000083  00000-0  23283-4 0  9993,2 53895  53.2161 194.2449 0001295  86.8415 273.2726 15.08848685 50357,6917.854,95.437,540.615,538.823,0.0
53895.0,STARLINK-5032,PAYLOAD,2023-08-20 01:57:31,15.08832266,0.0001349,53.2167,190.6752,97.1236,262.9909,-2.3301e-05,-6.59e-06,0.0,0 STARLINK-5032,1 53895U 22119K   23232.08161050 -.00000659  00000-0 -23301-4 0  9993,2 53895  53.2167 190.6752 0001349  97.1236 262.9909 15.08832266 50475,6917.904,95.438,540.702,538.836,0.0
53895.0,STARLINK-5032,PAYLOAD,2023-08-20 06:43:40,15.08837646,0.0001556,53.2169,189.7834,84.3127,275.8043,2.7214e-05,1.45e-06,0.0,0 STARLINK-5032,1 53895U 22119K   23232.28032694  .00000145  00000-0  27214-4 0  9991,2 53895  53.2169 189.7834 0001556  84.3127 275.8043 15.08837646 50507,6917.888,95.438,540.829,538.676,0.0
53895.0,STARLINK-5032,PAYLOAD,2023-08-21 03:23:40,15.08844387,0.000143,53.215,185.9186,93.3275,266.7881,4.4845e-05,4.26e-06,0.0,0 STARLINK-5032,1 53895U 22119K   23233.14144026  .00000426  00000-0  44845-4 0  9991,2 53895  53.2150 185.9186 0001430  93.3275 266.7881 15.08844387 50633,6917.867,95.437,540.721,538.743,0.0
53895.0,STARLINK-5032,PAYLOAD,2023-08-22 01:39:05,15.08835711,0.0001532,53.217,181.7573,100.6119,259.5046,-6.1497e-05,-1.266e-05,0.0,0 STARLINK-5032,1 53895U 22119K   23234.06881062 -.00001266  00000-0 -61497-4 0  9998,2 53895  53.2170 181.7573 0001532 100.6119 259.5046 15.08835711 50770,6917.893,95.438,540.818,538.699,0.0
53895.0,STARLINK-5032,PAYLOAD,2023-08-23 01:29:51,15.08840652,0.0001582,53.2174,177.2977,97.2831,262.8341,-3.4391e-06,-3.43e-06,0.0,0 STARLINK-5032,1 53895U 22119K   23235.06240712 -.00000343  00000-0 -34391-5 0  9999,2 53895  53.2174 177.2977 0001582  97.2831 262.8341 15.08840652 50921,6917.878,95.438,540.838,538.649,0.0
53895.0,STARLINK-5032,PAYLOAD,2023-08-24 04:31:25,15.08836369,0.0001555,53.2178,172.2469,97.4953,262.6216,1.8071e-05,0.0,0.0,0 STARLINK-5032,1 53895U 22119K   23236.18849219  .00000000  00000-0  18071-4 0  9994,2 53895  53.2178 172.2469 0001555  97.4953 262.6216 15.08836369 51518,6917.891,95.438,540.832,538.681,0.0
53895.0,STARLINK-5032,PAYLOAD,2023-08-25 05:57:35,15.08834438,0.0001275,53.2176,167.484,79.8061,280.3075,0.00012325,1.674e-05,0.0,0 STARLINK-5032,1 53895U 22119K   23237.24833259  .00001674  00000-0  12325-3 0  9992,2 53895  53.2176 167.4840 0001275  79.8061 280.3075 15.08834438 51254,6917.897,95.438,540.644,538.88,0.0
53895.0,STARLINK-5032,PAYLOAD,2023-08-26 04:13:00,15.08839402,0.0001472,53.2179,163.3204,87.7375,272.3786,9.2526e-06,-1.41e-06,0.0,0 STARLINK-5032,1 53895U 22119K   23238.17569551 -.00000141  00000-0  92526-5 0  9998,2 53895  53.2179 163.3204 0001472  87.7375 272.3786 15.08839402 51819,6917.882,95.438,540.766,538.729,0.0
53895.0,STARLINK-5032,PAYLOAD,2023-08-27 02:28:23,15.08844173,0.0001408,53.2173,159.1568,83.0127,277.1025,8.1362e-06,-1.58e-06,0.0,0 STARLINK-5032,1 53895U 22119K   23239.10305397 -.00000158  00000-0  81362-5 0  9992,2 53895  53.2173 159.1568 0001408  83.0127 277.1025 15.08844173 51531,6917.868,95.437,540.707,538.759,0.0
53895.0,STARLINK-5032,PAYLOAD,2023-08-27 04:03:46,15.08846495,0.0001453,53.2173,158.8585,93.7649,266.3509,2.1023e-05,4.7e-07,0.0,0 STARLINK-5032,1 53895U 22119K   23239.16929141  .00000047  00000-0  21023-4 0  9990,2 53895  53.2173 158.8585 0001453  93.7649 266.3509 15.08846495 51966,6917.861,95.437,540.731,538.72,0.0
